{"fetched_at":"2026-06-13T17:21:47Z","count":1672,"tles":[{"name":"ICESAT-2","line1":"1 43613U 18070A   26163.83336977  .00010603  00000+0  38563-3 0  9994","line2":"2 43613  92.0071 289.8030 0005794 115.7168 244.4680 15.28208075431792","category":"Other"},{"name":"SENTINEL-3B","line1":"1 43437U 18039A   26163.77151755  .00000105  00000+0  61575-4 0  9991","line2":"2 43437  98.6250 231.3669 0000743  81.1909 278.9356 14.26733871423499","category":"Other"},{"name":"GAOFEN-3","line1":"1 41727U 16049A   26163.85191668 -.00000149  00000+0 -32020-4 0  9999","line2":"2 41727  98.4013 171.7029 0001295  98.3950 261.7387 14.42214308518025","category":"Other"},{"name":"FORMOSAT-5","line1":"1 42920U 17049A   26163.77717390  .00000146  00000+0  48046-4 0  9993","line2":"2 42920  98.2253 239.1848 0012708  96.4965 263.7677 14.50897358466037","category":"Other"},{"name":"SENTINEL-5P","line1":"1 42969U 17064A   26163.83174784  .00000030  00000+0  35307-4 0  9992","line2":"2 42969  98.7925 105.9939 0000982  83.8435 276.2853 14.19518343448949","category":"Other"},{"name":"GAOFEN-6","line1":"1 43484U 18048A   26163.86974865  .00000163  00000+0  30432-4 0  9990","line2":"2 43484  97.8549 226.7291 0011464 181.5175 178.6002 14.76592394432755","category":"Other"},{"name":"RESOURCESAT-2A","line1":"1 41877U 16074A   26163.84786937 -.00000187  00000+0 -64971-4 0  9993","line2":"2 41877  98.7529 237.3875 0003362  91.5603 268.5960 14.21613725493680","category":"Other"},{"name":"SKYSAT-C2","line1":"1 41773U 16058D   26163.00305649  .00011377  00000+0  26905-3 0  9990","line2":"2 41773  97.0173 185.2931 0005014  82.1359 278.0458 15.41953046544250","category":"Other"},{"name":"SCATSAT 1","line1":"1 41790U 16059H   26163.74965439  .00001044  00000+0  14389-3 0  9993","line2":"2 41790  98.1191 227.4699 0053262 262.1877  97.3285 14.79517166100936","category":"Other"},{"name":"SKYSAT-C11","line1":"1 42987U 17068A   26162.91833448  .00024501  00000+0  33268-3 0  9995","line2":"2 42987  97.4339 311.5213 0000870  88.8932 271.2423 15.57622956482425","category":"Other"},{"name":"CARTOSAT-2D","line1":"1 41948U 17008A   26163.87739818  .00004570  00000+0  21968-3 0  9995","line2":"2 41948  97.4115 223.2633 0003585 248.6061 111.4792 15.19302703516923","category":"Other"},{"name":"SKYSAT-C10","line1":"1 42988U 17068B   26163.85838420  .00009619  00000+0  28957-3 0  9997","line2":"2 42988  97.4493 300.6637 0001182  94.0485 266.0893 15.34568821481691","category":"Other"},{"name":"SKYSAT-C9","line1":"1 42989U 17068C   26163.82483624  .00013573  00000+0  32566-3 0  9992","line2":"2 42989  97.4413 301.5230 0009198 146.7625 213.4201 15.41457575482083","category":"Other"},{"name":"SKYSAT-C8","line1":"1 42990U 17068D   26163.83630095  .00010489  00000+0  29300-3 0  9996","line2":"2 42990  97.4510 300.4246 0001491  97.1019 263.0395 15.36894208481640","category":"Other"},{"name":"SKYSAT-C7","line1":"1 42991U 17068E   26163.82977626  .00010807  00000+0  30209-3 0  9994","line2":"2 42991  97.4521 301.4072 0007152 119.0649 241.1312 15.36843293481705","category":"Other"},{"name":"SKYSAT-C4","line1":"1 41771U 16058B   26163.80871274  .00017048  00000+0  32248-3 0  9996","line2":"2 41771  96.9173 185.7643 0001097 123.8914 236.2443 15.48453820544799","category":"Other"},{"name":"SKYSAT-C6","line1":"1 42992U 17068F   26163.84199983  .00009512  00000+0  29023-3 0  9992","line2":"2 42992  97.4556 301.4052 0004235 148.8695 211.2800 15.34138397481656","category":"Other"},{"name":"SKYSAT-C5","line1":"1 41772U 16058C   26163.08252324  .00007112  00000+0  21575-3 0  9998","line2":"2 41772  97.0478 203.9505 0001584 349.6001  10.5210 15.34397832542963","category":"Other"},{"name":"SKYSAT-C3","line1":"1 41774U 16058E   26163.05120624  .00022038  00000+0  36317-3 0  9998","line2":"2 41774  96.9009 194.0967 0001746  85.4361 274.7093 15.52319154545315","category":"Other"},{"name":"ALSAT-1B","line1":"1 41785U 16059C   26163.89052127  .00000363  00000+0  64915-4 0  9998","line2":"2 41785  97.7751 172.8395 0007859 236.1802 123.8658 14.72271766519943","category":"Other"},{"name":"SENTINEL-2B","line1":"1 42063U 17013A   26163.80189389  .00000081  00000+0  47516-4 0  9996","line2":"2 42063  98.5693 238.6380 0001180  85.3459 274.7859 14.30815693484010","category":"Other"},{"name":"GAOFEN-11 01","line1":"1 43585U 18063A   26163.86245392  .00015800  00000+0  23551-3 0  9992","line2":"2 43585  97.1299 230.7539 0003719  14.3712 345.7648 15.55165075439677","category":"Other"},{"name":"CARTOSAT-2F","line1":"1 43111U 18004A   26163.86129613  .00003521  00000+0  17067-3 0  9991","line2":"2 43111  97.4795 223.5379 0000379 276.5679  83.5512 15.19179440466679","category":"Other"},{"name":"PATHFINDER 1","line1":"1 41787U 16059E   26163.22778745  .00000548  00000+0  10401-3 0  9993","line2":"2 41787  97.8167 162.7278 0027435 219.8560 140.0631 14.67657930518986","category":"Other"}]}